[{"OBJECT_NAME":"GAOFEN-9 02","OBJECT_ID":"2020-034B","EPOCH":"2026-03-10T00:01:23.433024","MEAN_MOTION":15.24736529,"ECCENTRICITY":0.00138652,"INCLINATION":97.5615,"RA_OF_ASC_NODE":225.1997,"ARG_OF_PERICENTER":60.5372,"MEAN_ANOMALY":299.7247,"EPHEMERIS_TYPE":0,"CLASSIFICATION_TYPE":"U","NORAD_CAT_ID":45625,"ELEMENT_SET_NO":999,"REV_AT_EPOCH":32104,"BSTAR":0.00036092627,"MEAN_MOTION_DOT":8.888e-5,"MEAN_MOTION_DDOT":0},{"OBJECT_NAME":"FLOCK 4G-29","OBJECT_ID":"2025-009AK","EPOCH":"2026-03-09T19:33:04.927968","MEAN_MOTION":15.27382318,"ECCENTRICITY":0.00013664,"INCLINATION":97.4058,"RA_OF_ASC_NODE":151.3683,"ARG_OF_PERICENTER":288.0502,"MEAN_ANOMALY":72.0588,"EPHEMERIS_TYPE":0,"CLASSIFICATION_TYPE":"U","NORAD_CAT_ID":62642,"ELEMENT_SET_NO":999,"REV_AT_EPOCH":6372,"BSTAR":0.0004183135,"MEAN_MOTION_DOT":0.00011147,"MEAN_MOTION_DDOT":0}]
